UNISAT-7                
1 47945U 21022P   24010.20912803  .00007497  00000+0  41160-3 0  9999
2 47945  97.4774 268.6259 0014942 339.1673  20.8948 15.14323448154229
2021-022Q               
1 47946U 21022Q   24010.46700988  .00013500  00000+0  65800-3 0  9996
2 47946  97.4787 270.6361 0013971 330.5337  29.5108 15.18368710154504
NANOSATC-BR2            
1 47950U 21022U   24010.42388562  .00021458  00000+0  91475-3 0  9995
2 47950  97.4752 270.9949 0014443 340.2824  19.7852 15.22867294154525
CUBESX-SIRIUS-HSE       
1 47951U 21022V   24010.41090333  .00014714  00000+0  70389-3 0  9999
2 47951  97.4787 269.8579 0016229 342.8227  17.2456 15.18967562154425
CUBESX-HSE              
1 47952U 21022W   24010.44012268  .00014934  00000+0  71269-3 0  9996
2 47952  97.4789 269.9551 0016048 342.3918  17.6758 15.19051180154431
2021-022X               
1 47953U 21022X   24010.42919723  .00009984  00000+0  53140-3 0  9994
2 47953  97.4765 268.1704 0017123 348.6258  11.4585 15.15307492154063
KSU-CUBESAT             
1 47954U 21022Y   24010.26433709  .00018104  00000+0  82342-3 0  9992
2 47954  97.4794 270.5473 0015224 340.5597  19.5055 15.20680100154172
CHALLENGE ONE           
1 47956U 21022AA  24010.19326386  .00017067  00000+0  80350-3 0  9992
2 47956  97.4795 269.7694 0016491 344.5563  15.5166 15.19484396154181
2021-022AC              
1 47958U 21022AC  24010.43904713  .00010737  00000+0  56322-3 0  9996
2 47958  97.4750 268.2001 0017293 347.8583  12.2231 15.15801375153158
GRBALPHA                
1 47959U 21022AD  24010.41484017  .00015344  00000+0  73018-3 0  9995
2 47959  97.4789 270.0497 0015967 342.5170  17.5512 15.19143516153252
ORBICRAFT-ZORKY         
1 47960U 21022AE  24010.44285357  .00016529  00000+0  75818-3 0  9992
2 47960  97.4830 270.8889 0015305 340.8722  19.1936 15.20407463153988
3B5GSAT (SATELIOT 1)    
1 47961U 21022AF  24009.71521890  .00048987  00000+0  14051-2 0  9990
2 47961  97.4862 275.8694 0010530 326.6543  33.4036 15.35667752153548
STECCO                  
1 47962U 21022AG  24010.46794270  .00041787  00000+0  13122-2 0  9998
2 47962  97.4801 275.9039 0008254 326.3659  33.7058 15.32859549153643
SMOG-1                  
1 47964U 21022AJ  24010.42697787  .00045124  00000+0  13417-2 0  9997
2 47964  97.4817 276.8674 0009269 318.6384  41.4156 15.34567093153695
CENTAURI-3 (TYVAK-0210) 
1 47966U 21023B   24010.12879358  .00054961  00000+0  16013-2 0  9997
2 47966  45.0078  49.4434 0006333   8.2232 351.8757 15.34645828154864
GLOBAL-9                
1 47971U 21023G   24009.78720047  .00025234  00000+0  60409-3 0  9993
2 47971  44.9914 159.2322 0001988 201.3195 158.7610 15.41053449157830
BCCSAT-1                
1 48041U 21022AK  24010.23714904  .00033159  00000+0  11485-2 0  9992
2 48041  97.4813 274.5689 0008473 323.5543  36.5119 15.29746490153505
BEESAT-8                
1 48085U 21022AP  24009.69636925  .00021547  00000+0  92309-3 0  9997
2 48085  97.4867 271.3321 0014574 340.8189  19.2497 15.22697088153538
2021-033E               
1 48252U 21033E   24010.40265160  .00020537  00000+0  52851-3 0  9991
2 48252  97.2874  84.7661 0008299  32.8165 327.3595 15.39237573150752
AII-BRAVO               
1 48270U 21034C   24010.16867247  .00004139  00000+0  42652-3 0  9997
2 48270  97.6797  75.9654 0003668   5.4338 354.6919 14.90762955146567
TYVAK-182A              
1 48271U 21034D   24010.17435353  .00004638  00000+0  46489-3 0  9994
2 48271  97.6783  76.8117 0002804  56.6784 303.4703 14.91826155146614
CSS (TIANHE)            
1 48274U 21035A   24009.33344652  .00039151  00000+0  42952-3 0  9994
2 48274  41.4702 339.6515 0004800  62.9190 297.2139 15.62457127154076
TYVAK-0130              
1 48606U 21041BF  24009.60725998  .00008110  00000+0  58281-3 0  9999
2 48606  53.0311 130.5400 0011602 319.5009  40.5115 15.05044033145336
HAIYANG-2D              
1 48621U 21043A   24010.42799429 -.00000002  00000+0  71533-4 0  9999
2 48621  65.9987 357.4029 0008800 283.1800  76.8287 13.83374938133650
2021-050D               
1 48843U 21050D   24010.45113346  .00008421  00000+0  36613-3 0  9995
2 48843  97.4200  90.4225 0004797  58.8045 301.3661 15.22511115143631
BRIK-II                 
1 48876U 21058F   24009.37969528  .00012754  00000+0  43582-3 0  9996
2 48876  60.6755   1.1673 0008096 210.1981 149.8644 15.30639675140553
SPACEBEE-100            
1 48883U 21059E   24009.94920711  .00144421  00000+0  17308-2 0  9992
2 48883  97.6048 160.6267 0004328 276.2962  83.7802 15.60443770141265
LEMUR-2-JACKSON         
1 48885U 21059G   24010.37138269  .00291610  00000+0  18417-2 0  9997
2 48885  97.5690 164.1731 0008133 287.8160  72.2217 15.75753113141567
TYVAK-0173              
1 48892U 21059P   24009.82849228  .00002771  00000+0  40622-3 0  9999
2 48892  96.0172 300.2670 0011171 145.0683 215.1267 14.76031588136786
CENTAURI-4 (TYVAK-0211) 
1 48898U 21059V   24010.38563972  .00060124  00000+0  97625-3 0  9998
2 48898  97.6027 161.2966 0005077 249.2360 110.8349 15.52519888141358
TUBIN                   
1 48900U 21059X   24010.42550093  .00012390  00000+0  50801-3 0  9994
2 48900  97.6227 151.4214 0006974 283.3143  76.7316 15.24386068140697
UMBRA-2001              
1 48906U 21059AD  24010.38530375  .00050318  00000+0  22537-2 0  9992
2 48906  97.5863 146.5943 0002595 347.3022  12.8147 15.21074854140501
MANDRAKE 2 ABLE         
1 48907U 21059AE  24009.94676585  .00009163  00000+0  41076-3 0  9999
2 48907  97.6232 150.0364 0008040 291.6633  68.3746 15.21429913140567
MANDRAKE 2 BAKER        
1 48908U 21059AF  24010.33957854  .00010139  00000+0  44669-3 0  9992
2 48908  97.6250 150.7149 0007399 278.9439  81.0959 15.21998277140634
PACE-1                  
1 48909U 21059AG  24009.96607552  .00009791  00000+0  42140-3 0  9991
2 48909  97.6158 149.6920 0007743 277.4790  82.5566 15.22803425140601
YAM-2                   
1 48911U 21059AJ  24010.39327779  .00014641  00000+0  56265-3 0  9996
2 48911  97.6244 153.1197 0007472 271.3269  88.7113 15.26511864140781
ION SCV-003             
1 48912U 21059AK  24009.97380164  .00022749  00000+0  69272-3 0  9996
2 48912  97.5946 153.3530 0007655 271.4780  88.5585 15.33975748140914
YAM-3                   
1 48915U 21059AN  24009.94988694  .00008648  00000+0  38544-3 0  9998
2 48915  97.6210 150.1547 0008563 273.6718  86.3538 15.21642242140583
LEMUR-2-ANNABANANA      
1 48923U 21059AW  24010.37415435  .00055813  00000+0  78065-3 0  9992
2 48923  97.5846 164.7305 0004769 228.1683 131.9164 15.56642788141642
FARADAY_PHOENIX         
1 48924U 21059AX  24009.90618465  .00008124  00000+0  34587-3 0  9992
2 48924  97.6246 152.0847 0013933 273.4301  86.5341 15.23172330140671
PAINANI-2               
1 48928U 21059BB  24009.90917067  .00027306  00000+0  80109-3 0  9990
2 48928  97.6219 156.7331 0009020 261.4033  98.6187 15.35104571140975
SHERPA-LTE1             
1 48941U 21059BQ  24009.98703800  .00043212  00000+0  49186-3 0  9995
2 48941  97.6051 176.8686 0000990 227.1171 133.0004 15.62170152142320
QMR-KWT                 
1 48943U 21059BS  24010.36655266  .00037419  00000+0  98307-3 0  9994
2 48943  97.6153 157.2134 0004660 264.4506  95.6207 15.38506523141088
DEMO8 (TENZING)         
1 48951U 21059CA  24009.92035424  .00008556  00000+0  36930-3 0  9995
2 48951  97.6283 152.1816 0012850 284.0359  75.9448 15.22704594140679
ASTROCAST-0201          
1 48954U 21059CD  24009.89893075  .00010387  00000+0  41591-3 0  9992
2 48954  97.6123 152.4926 0009092 280.4894  79.5319 15.25216016140743
ASTROCAST-0203          
1 48955U 21059CE  24009.92008289  .00009818  00000+0  39287-3 0  9998
2 48955  97.6101 152.1224 0011581 278.3656  81.6268 15.25230257140746
ASTROCAST-0205          
1 48960U 21059CK  24009.94230733  .00011132  00000+0  44548-3 0  9995
2 48960  97.6106 152.4538 0010547 255.6770 104.3296 15.25204177140751
GHALIB                  
1 48962U 21059CM  24009.70553473  .00097323  00000+0  15612-2 0  9995
2 48962  97.6050 159.2740 0004220 275.6402  84.4369 15.52714610141170
NAPA-2                  
1 48963U 21059CN  24010.39504932  .00012407  00000+0  54768-3 0  9995
2 48963  97.6189 149.5435 0010200 275.9024  84.1049 15.21855965140597
W-CUBE                  
1 48965U 21059CQ  24009.92705199  .00013912  00000+0  56159-3 0  9990
2 48965  97.6227 151.0277 0008971 268.9587  91.0622 15.24866867140626
NEPT-1                  
1 48966U 21059CR  24010.34924536  .00041145  00000+0  98704-3 0  9998
2 48966  97.6035 156.5655 0004191 249.8348 110.2448 15.41263394141117
JILIN-1 GAOFEN 3D01     
1 49004U 21061B   24010.41517645  .00013141  00000+0  56023-3 0  9995
2 49004  97.4222  76.6163 0009460 351.0902   9.0165 15.23027358139407
JILIN-1 GAOFEN 3D03     
1 49006U 21061D   24010.40041164  .00011499  00000+0  54004-3 0  9995
2 49006  97.4208  74.6195 0011095  40.0745 320.1306 15.19726479139277
XINGSHIDAI 10           
1 49007U 21061E   24010.39875733  .00011621  00000+0  54779-3 0  9997
2 49007  97.4213  74.5373 0011571  25.3802 334.7999 15.19590171139266
FENGYUN 3E              
1 49008U 21062A   24010.42600582  .00000035  00000+0  37383-4 0  9991
2 49008  98.7288  13.8662 0002475 113.2902 246.8534 14.19721134130466
DHABISAT (MYSAT-2)      
1 49016U 21013F   24010.47251070  .01374242  12425-2  14962-2 0  9993
2 49016  51.5651 109.6603 0010277 351.7165   8.3677 16.09331052142193
IT-SPINS                
1 49017U 21013G   24010.33123699  .00174474  00000+0  12062-2 0  9990
2 49017  51.5804 125.5590 0005697 333.6444  26.4263 15.73445507141917
ISS (NAUKA)             
1 49044U 21066A   24009.53618896  .00012914  00000+0  23226-3 0  9991
2 49044  51.6421  26.3957 0003666  14.0878 122.6248 15.50197586433791
BRO-4                   
1 49066U 21073A   24010.41526333  .00019499  00000+0  80164-3 0  9995
2 49066  97.4677  86.2846 0022321 101.9633 258.4108 15.23975802132516
RADCUBE                 
1 49067U 21073B   24009.75519066  .00039787  00000+0  12577-2 0  9990
2 49067  97.4620  87.5670 0017008 103.7279 256.5857 15.32549397132534
